{"type": "FeatureCollection", "features": [ {"type": "Feature", "properties": {"norad_id": 66815, "name": "STARLINK-35985", "group": "last-30-days", "lat": -41.54182711079484, "lon": 133.61391052564397, "alt_km": 290.62142833148937, "timestamp": "2025-12-14T09:36:21.780215+00:00", "meta": {"OBJECT_NAME": "STARLINK-35985", "OBJECT_ID": "2025-278AA", "EPOCH": "2025-12-12T18:52:41.807136", "MEAN_MOTION": 15.89981059, "ECCENTRICITY": 0.00144492, "INCLINATION": 42.9985, "RA_OF_ASC_NODE": 251.6744, "ARG_OF_PERICENTER": 289.6758, "MEAN_ANOMALY": 70.2558, "EPHEMERIS_TYPE": 0, "CLASSIFICATION_TYPE": "U", "NORAD_CAT_ID": 66815, "ELEMENT_SET_NO": 999, "REV_AT_EPOCH": 305, "BSTAR": 0.0028507856, "MEAN_MOTION_DOT": 0.00887373, "MEAN_MOTION_DDOT": 0.00032777577}, "tle": {"line1": "1 66815U 25278AA  25346.78659499  .00887373  32778-3  28508-2 0  9998", "line2": "2 66815  42.9985 251.6744 0014449 289.6758  70.2558 15.89981059  3051"}}, "geometry": {"type": "Point", "coordinates": [133.61391052564397, -41.54182711079484]}}, {"type": "Feature", "properties": {"norad_id": 66816, "name": "STARLINK-36098", "group": "last-30-days", "lat": -18.40773549739391, "lon": 82.69692259454207, "alt_km": 324.14657166453344, "timestamp": "2025-12-14T09:36:21.780225+00:00", "meta": {"OBJECT_NAME": "STARLINK-36098", "OBJECT_ID": "2025-278AB", "EPOCH": "2025-12-13T16:05:08.049120", "MEAN_MOTION": 15.8487421, "ECCENTRICITY": 0.00035525, "INCLINATION": 42.9971, "RA_OF_ASC_NODE": 246.2571, "ARG_OF_PERICENTER": 285.5355, "MEAN_ANOMALY": 74.5125, "EPHEMERIS_TYPE": 0, "CLASSIFICATION_TYPE": "U", "NORAD_CAT_ID": 66816, "ELEMENT_SET_NO": 999, "REV_AT_EPOCH": 198, "BSTAR": -0.0062226024, "MEAN_MOTION_DOT": -0.01321783, "MEAN_MOTION_DDOT": 0}, "tle": {"line1": "1 66816U 25278AB  25347.67023205 -.01321783  00000+0 -62226-2 0  9993", "line2": "2 66816  42.9971 246.2571 0003552 285.5355  74.5125 15.84874210  1988"}}, "geometry": {"type": "Point", "coordinates": [82.69692259454207, -18.40773549739391]}}, {"type": "Feature", "properties": {"norad_id": 66817, "name": "STARLINK-35995", "group": "last-30-days", "lat": -26.756819939609326, "lon": 94.49668811152712, "alt_km": 304.8982258111919, "timestamp": "2025-12-14T09:36:21.780235+00:00", "meta": {"OBJECT_NAME": "STARLINK-35995", "OBJECT_ID": "2025-278AC", "EPOCH": "2025-12-13T14:33:14.421888", "MEAN_MOTION": 15.86807538, "ECCENTRICITY": 0.00113024, "INCLINATION": 42.9965, "RA_OF_ASC_NODE": 246.6395, "ARG_OF_PERICENTER": 234.2642, "MEAN_ANOMALY": 125.7181, "EPHEMERIS_TYPE": 0, "CLASSIFICATION_TYPE": "U", "NORAD_CAT_ID": 66817, "ELEMENT_SET_NO": 999, "REV_AT_EPOCH": 197, "BSTAR": 0.001515365, "MEAN_MOTION_DOT": 0.00422334, "MEAN_MOTION_DDOT": 0}, "tle": {"line1": "1 66817U 25278AC  25347.60641692  .00422334  00000+0  15154-2 0  9992", "line2": "2 66817  42.9965 246.6395 0011302 234.2642 125.7181 15.86807538  1973"}}, "geometry": {"type": "Point", "coordinates": [94.49668811152712, -26.756819939609326]}}, {"type": "Feature", "properties": {"norad_id": 66818, "name": "STARLINK-35994", "group": "last-30-days", "lat": -22.775236522594835, "lon": 88.5329070620105, "alt_km": 316.2818535027236, "timestamp": "2025-12-14T09:36:21.780246+00:00", "meta": {"OBJECT_NAME": "STARLINK-35994", "OBJECT_ID": "2025-278AD", "EPOCH": "2025-12-13T03:59:19.671360", "MEAN_MOTION": 15.86415489, "ECCENTRICITY": 0.00028361, "INCLINATION": 42.9975, "RA_OF_ASC_NODE": 249.361, "ARG_OF_PERICENTER": 274.2297, "MEAN_ANOMALY": 85.8252, "EPHEMERIS_TYPE": 0, "CLASSIFICATION_TYPE": "U", "NORAD_CAT_ID": 66818, "ELEMENT_SET_NO": 999, "REV_AT_EPOCH": 190, "BSTAR": -0.0014167145, "MEAN_MOTION_DOT": -0.00354579, "MEAN_MOTION_DDOT": 0}, "tle": {"line1": "1 66818U 25278AD  25347.16619990 -.00354579  00000+0 -14167-2 0  9990", "line2": "2 66818  42.9975 249.3610 0002836 274.2297  85.8252 15.86415489  1905"}}, "geometry": {"type": "Point", "coordinates": [88.5329070620105, -22.775236522594835]}}, {"type": "Feature", "properties": {"norad_id": 66819, "name": "STARLINK-35989", "group": "last-30-days", "lat": -28.943484871943276, "lon": 98.1316119216717, "alt_km": 313.5576018519787, "timestamp": "2025-12-14T09:36:21.780256+00:00", "meta": {"OBJECT_NAME": "STARLINK-35989", "OBJECT_ID": "2025-278AE", "EPOCH": "2025-12-13T02:25:59.508480", "MEAN_MOTION": 15.87984782, "ECCENTRICITY": 0.00193199, "INCLINATION": 42.9981, "RA_OF_ASC_NODE": 249.7349, "ARG_OF_PERICENTER": 275.1685, "MEAN_ANOMALY": 84.6984, "EPHEMERIS_TYPE": 0, "CLASSIFICATION_TYPE": "U", "NORAD_CAT_ID": 66819, "ELEMENT_SET_NO": 999, "REV_AT_EPOCH": 189, "BSTAR": -0.0055008218, "MEAN_MOTION_DOT": -0.01562027, "MEAN_MOTION_DDOT": 0.00065817872}, "tle": {"line1": "1 66819U 25278AE  25347.10138320 -.01562027  65818-3 -55008-2 0  9999", "line2": "2 66819  42.9981 249.7349 0019319 275.1685  84.6984 15.87984782  1896"}}, "geometry": {"type": "Point", "coordinates": [98.1316119216717, -28.943484871943276]}}, {"type": "Feature", "properties": {"norad_id": 66820, "name": "KOMPSAT-7", "group": "last-30-days", "lat": -58.80544129859792, "lon": -52.955536528288036, "alt_km": 576.2711865305564, "timestamp": "2025-12-14T09:36:21.780269+00:00", "meta": {"OBJECT_NAME": "KOMPSAT-7", "OBJECT_ID": "2025-279A", "EPOCH": "2025-12-13T16:14:55.633920", "MEAN_MOTION": 14.98959073, "ECCENTRICITY": 0.00087252, "INCLINATION": 97.6412, "RA_OF_ASC_NODE": 293.5252, "ARG_OF_PERICENTER": 221.9329, "MEAN_ANOMALY": 138.1227, "EPHEMERIS_TYPE": 0, "CLASSIFICATION_TYPE": "U", "NORAD_CAT_ID": 66820, "ELEMENT_SET_NO": 999, "REV_AT_EPOCH": 179, "BSTAR": 0.00032444446, "MEAN_MOTION_DOT": 3.872e-05, "MEAN_MOTION_DDOT": 0}, "tle": {"line1": "1 66820U 25279A   25347.67703280  .00003872  00000+0  32444-3 0  9990", "line2": "2 66820  97.6412 293.5252 0008725 221.9329 138.1227 14.98959073  1797"}}, "geometry": {"type": "Point", "coordinates": [-52.955536528288036, -58.80544129859792]}}, {"type": "Feature", "properties": {"norad_id": 66821, "name": "STARLINK-35966", "group": "last-30-days", "lat": 65.69723294715497, "lon": -112.0891751981375, "alt_km": 333.82454443114693, "timestamp": "2025-12-14T09:36:21.780281+00:00", "meta": {"OBJECT_NAME": "STARLINK-35966", "OBJECT_ID": "2025-280A", "EPOCH": "2025-12-13T07:25:02.611200", "MEAN_MOTION": 15.78418618, "ECCENTRICITY": 0.00036963, "INCLINATION": 69.9926, "RA_OF_ASC_NODE": 197.218, "ARG_OF_PERICENTER": 286.2434, "MEAN_ANOMALY": 73.8359, "EPHEMERIS_TYPE": 0, "CLASSIFICATION_TYPE": "U", "NORAD_CAT_ID": 66821, "ELEMENT_SET_NO": 999, "REV_AT_EPOCH": 301, "BSTAR": -0.0037794284, "MEAN_MOTION_DOT": -0.00611112, "MEAN_MOTION_DDOT": 0}, "tle": {"line1": "1 66821U 25280A   25347.30905800 -.00611112  00000+0 -37794-2 0  9991", "line2": "2 66821  69.9926 197.2180 0003696 286.2434  73.8359 15.78418618  3015"}}, "geometry": {"type": "Point", "coordinates": [-112.0891751981375, 65.69723294715497]}}, {"type": "Feature", "properties": {"norad_id": 66822, "name": "STARLINK-35958", "group": "last-30-days", "lat": 66.1382879014952, "lon": -110.4219913137033, "alt_km": 345.065900126865, "timestamp": "2025-12-14T09:36:21.780291+00:00", "meta": {"OBJECT_NAME": "STARLINK-35958", "OBJECT_ID": "2025-280B", "EPOCH": "2025-12-13T15:00:37.270368", "MEAN_MOTION": 15.78082913, "ECCENTRICITY": 0.00156071, "INCLINATION": 69.9925, "RA_OF_ASC_NODE": 196.3142, "ARG_OF_PERICENTER": 292.1158, "MEAN_ANOMALY": 67.8385, "EPHEMERIS_TYPE": 0, "CLASSIFICATION_TYPE": "U", "NORAD_CAT_ID": 66822, "ELEMENT_SET_NO": 999, "REV_AT_EPOCH": 306, "BSTAR": -0.010587533, "MEAN_MOTION_DOT": -0.01601485, "MEAN_MOTION_DDOT": 0}, "tle": {"line1": "1 66822U 25280B   25347.62543137 -.01601485  00000+0 -10588-1 0  9992", "line2": "2 66822  69.9925 196.3142 0015607 292.1158  67.8385 15.78082913  3069"}}, "geometry": {"type": "Point", "coordinates": [-110.4219913137033, 66.1382879014952]}}, {"type": "Feature", "properties": {"norad_id": 66823, "name": "STARLINK-35957", "group": "last-30-days", "lat": 67.51933767512622, "lon": -104.18435363795038, "alt_km": 333.50173969280513, "timestamp": "2025-12-14T09:36:21.780301+00:00", "meta": {"OBJECT_NAME": "STARLINK-35957", "OBJECT_ID": "2025-280C", "EPOCH": "2025-12-13T07:24:03.287232", "MEAN_MOTION": 15.7841229, "ECCENTRICITY": 0.00029253, "INCLINATION": 69.9931, "RA_OF_ASC_NODE": 197.2154, "ARG_OF_PERICENTER": 292.1559, "MEAN_ANOMALY": 67.933, "EPHEMERIS_TYPE": 0, "CLASSIFICATION_TYPE": "U", "NORAD_CAT_ID": 66823, "ELEMENT_SET_NO": 999, "REV_AT_EPOCH": 301, "BSTAR": -0.0041443241, "MEAN_MOTION_DOT": -0.00665505, "MEAN_MOTION_DDOT": 0}, "tle": {"line1": "1 66823U 25280C   25347.30837138 -.00665505  00000+0 -41443-2 0  9992", "line2": "2 66823  69.9931 197.2154 0002925 292.1559  67.9330 15.78412290  3015"}}, "geometry": {"type": "Point", "coordinates": [-104.18435363795038, 67.51933767512622]}}, {"type": "Feature", "properties": {"norad_id": 66824, "name": "STARLINK-35896", "group": "last-30-days", "lat": 68.71857149486796, "lon": -96.58974284993067, "alt_km": 333.9851382884508, "timestamp": "2025-12-14T09:36:21.780314+00:00", "meta": {"OBJECT_NAME": "STARLINK-35896", "OBJECT_ID": "2025-280D", "EPOCH": "2025-12-13T04:20:59.538624", "MEAN_MOTION": 15.78881277, "ECCENTRICITY": 0.00039504, "INCLINATION": 69.9932, "RA_OF_ASC_NODE": 197.5749, "ARG_OF_PERICENTER": 269.5598, "MEAN_ANOMALY": 90.515, "EPHEMERIS_TYPE": 0, "CLASSIFICATION_TYPE": "U", "NORAD_CAT_ID": 66824, "ELEMENT_SET_NO": 999, "REV_AT_EPOCH": 299, "BSTAR": -0.0044799056, "MEAN_MOTION_DOT": -0.00729751, "MEAN_MOTION_DDOT": 0}, "tle": {"line1": "1 66824U 25280D   25347.18124466 -.00729751  00000+0 -44799-2 0  9993", "line2": "2 66824  69.9932 197.5749 0003950 269.5598  90.5150 15.78881277  2993"}}, "geometry": {"type": "Point", "coordinates": [-96.58974284993067, 68.71857149486796]}}]}